[{"OBJECT_NAME":"STARLINK-30494","OBJECT_ID":"2023-151G","EPOCH":"2026-03-09T08:39:06.366240","MEAN_MOTION":15.28417441,"ECCENTRICITY":0.00011553,"INCLINATION":43.0027,"RA_OF_ASC_NODE":192.4566,"ARG_OF_PERICENTER":241.5536,"MEAN_ANOMALY":118.52,"EPHEMERIS_TYPE":0,"CLASSIFICATION_TYPE":"U","NORAD_CAT_ID":57970,"ELEMENT_SET_NO":999,"REV_AT_EPOCH":13740,"BSTAR":-3.569111e-5,"MEAN_MOTION_DOT":-1.272e-5,"MEAN_MOTION_DDOT":0},{"OBJECT_NAME":"STARLINK-32421","OBJECT_ID":"2024-191H","EPOCH":"2026-03-08T07:22:07.360896","MEAN_MOTION":15.27576324,"ECCENTRICITY":4.027e-5,"INCLINATION":42.9973,"RA_OF_ASC_NODE":162.4259,"ARG_OF_PERICENTER":213.4244,"MEAN_ANOMALY":146.6582,"EPHEMERIS_TYPE":0,"CLASSIFICATION_TYPE":"U","NORAD_CAT_ID":61628,"ELEMENT_SET_NO":999,"REV_AT_EPOCH":7732,"BSTAR":-5.7061772e-5,"MEAN_MOTION_DOT":-1.831e-5,"MEAN_MOTION_DDOT":0}]
